QIANFAN-81              
1 63167U 25046J   25273.31405922  .00000192  00000+0  27808-3 0  9994
2 63167  88.9821 327.4660 0013389 340.8688  19.1959 13.50981793 37572
QIANFAN-82              
1 63168U 25046K   25273.27298399  .00000211  00000+0  30783-3 0  9996
2 63168  88.9821 327.5138 0011840 350.8996   9.1939 13.50969747 37557
QIANFAN-83              
1 63169U 25046L   25273.30495119  .00000260  00000+0  32136-3 0  9998
2 63169  88.9819 327.4310 0012718 338.3613  21.7006 13.61956996 37603
QIANFAN-84              
1 63170U 25046M   25273.30150718  .00000187  00000+0  27090-3 0  9994
2 63170  88.9822 327.6439 0014640 344.9765  15.0949 13.50982623 37482
QIANFAN-85              
1 63171U 25046N   25273.29767657  .00000234  00000+0  34433-3 0  9991
2 63171  88.9821 327.5163 0012143 349.3644  10.7248 13.50980185 37559
QIANFAN-86              
1 63172U 25046P   25270.04706391  .00000201  00000+0  29286-3 0  9994
2 63172  88.9828 327.7109 0010538   5.8456 354.2816 13.50978981 37198
QIANFAN-87              
1 63173U 25046Q   25273.27712677  .00000203  00000+0  29542-3 0  9994
2 63173  88.9819 327.4932 0010723 349.7475  10.3455 13.50976078 37562
QIANFAN-88              
1 63174U 25046R   25273.29358267  .00000212  00000+0  31052-3 0  9997
2 63174  88.9822 327.4442 0011399 357.9504   2.1599 13.50969435 37597
